NORAD_CAT_ID,OBJECT_NAME,OBJECT_TYPE,EPOCH,MEAN_MOTION,ECCENTRICITY,INCLINATION,RA_OF_ASC_NODE,ARG_OF_PERICENTER,MEAN_ANOMALY,BSTAR,MEAN_MOTION_DOT,MEAN_MOTION_DDOT,TLE_LINE0,TLE_LINE1,TLE_LINE2,SEMIMAJOR_AXIS,PERIOD,APOGEE,PERIGEE,DECAYED
49440.0,STARLINK-3105,PAYLOAD,2022-10-08 12:37:53,15.08845578,0.0002254,53.2176,52.3554,31.4114,328.7012,0.00013241,1.82e-05,0.0,0 STARLINK-3105,1 49440U 21104AJ  22281.52630937  .00001820  00000-0  13241-3 0  9994,2 49440  53.2176  52.3554 0002254  31.4114 328.7012 15.08845578 50489,6917.863,95.437,541.288,538.169,0.0
49440.0,STARLINK-3105,PAYLOAD,2022-10-08 15:48:39,15.08845286,0.0002198999999999,53.2175,51.7596,34.5483,325.5652,0.00011536,1.548e-05,0.0,0 STARLINK-3105,1 49440U 21104AJ  22281.65878950  .00001548  00000-0  11536-3 0  9999,2 49440  53.2175  51.7596 0002199  34.5483 325.5652 15.08845286 50502,6917.864000000001,95.437,541.25,538.2080000000002,0.0
49440.0,STARLINK-3105,PAYLOAD,2022-10-09 04:31:44,15.08834575,0.0002392,53.2175,49.3819,29.926,330.1868,0.00010261,1.345e-05,0.0,0 STARLINK-3105,1 49440U 21104AJ  22282.18871461  .00001345  00000-0  10261-3 0  9997,2 49440  53.2175  49.3819 0002392  29.9260 330.1868 15.08834575 51656,6917.897,95.438,541.4169999999998,538.107,0.0
49440.0,STARLINK-3105,PAYLOAD,2022-10-09 12:28:40,15.08839712,0.0002365,53.2176,47.8948,30.4973,329.6156,0.00014217,1.975e-05,0.0,0 STARLINK-3105,1 49440U 21104AJ  22282.51991132  .00001975  00000-0  14217-3 0  9996,2 49440  53.2176  47.8948 0002365  30.4973 329.6156 15.08839712 50639,6917.880999999999,95.438,541.382,538.11,0.0
49440.0,STARLINK-3105,PAYLOAD,2022-10-09 15:39:26,15.088423,0.0002331999999999,53.2175,47.2999,31.0499,329.0630000000001,0.00015876,2.239e-05,0.0,0 STARLINK-3105,1 49440U 21104AJ  22282.65238987  .00002239  00000-0  15876-3 0  9999,2 49440  53.2175  47.2999 0002332  31.0499 329.0630 15.08842300 50652,6917.873000000001,95.437,541.352,538.125,0.0
49440.0,STARLINK-3105,PAYLOAD,2022-10-10 12:19:28,15.08835299,0.0002558,53.2172,43.4344,32.0596,328.0551,3.7671e-05,3.11e-06,0.0,0 STARLINK-3105,1 49440U 21104AJ  22283.51351940  .00000311  00000-0  37671-4 0  9997,2 49440  53.2172  43.4344 0002558  32.0596 328.0551 15.08835299 51853,6917.895,95.438,541.529,537.99,0.0
49440.0,STARLINK-3105,PAYLOAD,2022-10-10 18:41:00,15.08844108,0.0002275,53.2175,42.2445,35.0302,325.0839,5.08e-05,5.2e-06,0.0,0 STARLINK-3105,1 49440U 21104AJ  22283.77847247  .00000520  00000-0  50800-4 0  9996,2 49440  53.2175  42.2445 0002275  35.0302 325.0839 15.08844108 50820,6917.868,95.437,541.307,538.159,0.0
49440.0,STARLINK-3105,PAYLOAD,2022-10-11 10:34:52,15.08824912,0.0002197,53.2181,39.271,29.8592,330.2526,-2.7068e-05,-7.19e-06,0.0,0 STARLINK-3105,1 49440U 21104AJ  22284.44088874 -.00000719  00000-0 -27068-4 0  9996,2 49440  53.2181  39.2710 0002197  29.8592 330.2526 15.08824912 50926,6917.927,95.439,541.311,538.2719999999998,0.0
49440.0,STARLINK-3105,PAYLOAD,2022-10-11 16:56:25,15.08822123,0.0002227,53.2183,38.0819,30.2612,329.8508,-6.9137e-05,-1.388e-05,0.0,0 STARLINK-3105,1 49440U 21104AJ  22284.70585388 -.00001388  00000-0 -69137-4 0  9993,2 49440  53.2183  38.0819 0002227  30.2612 329.8508 15.08822123 50968,6917.935,95.439,541.341,538.259,0.0
49440.0,STARLINK-3105,PAYLOAD,2022-10-12 12:01:03,15.08824793,0.0002569,53.2184,34.5152,25.9826,334.1295,5.7549e-05,6.27e-06,0.0,0 STARLINK-3105,1 49440U 21104AJ  22285.50073715  .00000627  00000-0  57549-4 0  9995,2 49440  53.2184  34.5152 0002569  25.9826 334.1295 15.08824793 52157,6917.927,95.439,541.569,538.015,0.0
49440.0,STARLINK-3105,PAYLOAD,2022-10-12 13:36:26,15.08825192,0.0002548,53.2184,34.2177,26.2793,333.8328,6.0576e-05,6.75e-06,0.0,0 STARLINK-3105,1 49440U 21104AJ  22285.56697749  .00000675  00000-0  60576-4 0  9997,2 49440  53.2184  34.2177 0002548  26.2793 333.8328 15.08825192 51094,6917.926,95.438,541.553,538.028,0.0
49440.0,STARLINK-3105,PAYLOAD,2022-10-12 16:47:12,15.08834529,0.000234,53.2181,33.6211,31.924,328.1894,9.6254e-05,1.244e-05,0.0,0 STARLINK-3105,1 49440U 21104AJ  22285.69945098  .00001244  00000-0  96254-4 0  9999,2 49440  53.2181  33.6211 0002340  31.9240 328.1894 15.08834529 51115,6917.897,95.438,541.381,538.143,0.0
49440.0,STARLINK-3105,PAYLOAD,2022-10-13 02:19:30,15.0884547,0.0002078,53.2174,31.8378,37.7811,322.3326,4.6431e-05,4.51e-06,0.0,0 STARLINK-3105,1 49440U 21104AJ  22286.09688578  .00000451  00000-0  46431-4 0  9992,2 49440  53.2174  31.8378 0002078  37.7811 322.3326 15.08845470 52245,6917.864000000001,95.437,541.1659999999998,538.2909999999998,0.0
49440.0,STARLINK-3105,PAYLOAD,2022-10-13 13:27:14,15.08824605,0.0002355,53.218,29.7551,27.0745,333.0369,0.00011706,1.574e-05,0.0,0 STARLINK-3105,1 49440U 21104AJ  22286.56058120  .00001574  00000-0  11706-3 0  9991,2 49440  53.2180  29.7551 0002355  27.0745 333.0369 15.08824605 52318,6917.927,95.439,541.422,538.163,0.0
49440.0,STARLINK-3105,PAYLOAD,2022-10-14 02:10:18,15.08841807,0.0002675,53.218,27.3787,28.1399,331.9737,0.0002085999999999,3.033e-05,0.0,0 STARLINK-3105,1 49440U 21104AJ  22287.09049262  .00003033  00000-0  20860-3 0  9990,2 49440  53.2180  27.3787 0002675  28.1399 331.9737 15.08841807 52392,6917.875,95.437,541.59,537.889,0.0
49440.0,STARLINK-3105,PAYLOAD,2022-10-14 13:18:00,15.08842361,0.0002508999999999,53.2182,25.2966,28.2088,331.904,0.00023502,3.454e-05,0.0,0 STARLINK-3105,1 49440U 21104AJ  22287.55417228  .00003454  00000-0  23502-3 0  9995,2 49440  53.2182  25.2966 0002509  28.2088 331.9040 15.08842361 51394,6917.873000000001,95.437,541.474,538.002,0.0
49440.0,STARLINK-3105,PAYLOAD,2022-10-15 11:33:24,15.08836323,0.000259,53.2187,21.1336,24.3615,335.7499,7.4953e-05,9.05e-06,0.0,0 STARLINK-3105,1 49440U 21104AJ  22288.48153643  .00000905  00000-0  74953-4 0  9991,2 49440  53.2187  21.1336 0002590  24.3615 335.7499 15.08836323 51535,6917.892,95.438,541.548,537.965,0.0
49440.0,STARLINK-3105,PAYLOAD,2022-10-15 16:19:34,15.088335699999998,0.0002625,53.219,20.2422,22.9079,337.2030000000001,5.5594e-05,5.96e-06,0.0,0 STARLINK-3105,1 49440U 21104AJ  22288.68025891  .00000596  00000-0  55594-4 0  9992,2 49440  53.2190  20.2422 0002625  22.9079 337.2030 15.08833570 51564,6917.9,95.438,541.581,537.9490000000002,0.0
49440.0,STARLINK-3105,PAYLOAD,2022-10-16 05:02:40,15.0882256,0.0002557,53.2181,17.8631,26.822,333.2904,-0.00011901,-2.181e-05,0.0,0 STARLINK-3105,1 49440U 21104AJ  22289.21019245 -.00002181  00000-0 -11901-3 0  9995,2 49440  53.2181  17.8631 0002557  26.8220 333.2904 15.08822560 52714,6917.934,95.439,541.568,538.03,0.0
49440.0,STARLINK-3105,PAYLOAD,2022-10-16 11:24:14,15.0880916,0.0002353,53.2182,16.6724,23.749,336.361,-0.00022219,-3.82e-05,0.0,0 STARLINK-3105,1 49440U 21104AJ  22289.47516881 -.00003820  00000-0 -22219-3 0  9996,2 49440  53.2182  16.6724 0002353  23.7490 336.3610 15.08809160 52757,6917.975,95.44,541.467,538.212,0.0
49440.0,STARLINK-3105,PAYLOAD,2022-10-16 16:10:23,15.08820989,0.0002073999999999,53.2176,15.777,35.1199,324.9929,-0.00022205,-3.819e-05,0.0,0 STARLINK-3105,1 49440U 21104AJ  22289.67388212 -.00003819  00000-0 -22205-3 0  9996,2 49440  53.2176  15.7770 0002074  35.1199 324.9929 15.08820989 52785,6917.938,95.439,541.238,538.369,0.0
49440.0,STARLINK-3105,PAYLOAD,2022-10-17 04:53:27,15.08829435,0.0003307,53.2187,13.4022,17.5298,342.5808,-9.5781e-06,-4.41e-06,0.0,0 STARLINK-3105,1 49440U 21104AJ  22290.20379622 -.00000441  00000-0 -95781-5 0  9991,2 49440  53.2187  13.4022 0003307  17.5298 342.5808 15.08829435 52862,6917.913000000001,95.438,542.065,537.49,0.0
49440.0,STARLINK-3105,PAYLOAD,2022-10-17 12:50:22,15.08844299,0.0002699,53.2183,11.9161,26.5398,333.5732,0.0001078,1.428e-05,0.0,0 STARLINK-3105,1 49440U 21104AJ  22290.53498274  .00001428  00000-0  10780-3 0  9990,2 49440  53.2183  11.9161 0002699  26.5398 333.5732 15.08844299 52916,6917.8669999999975,95.437,541.599,537.865,0.0
49440.0,STARLINK-3105,PAYLOAD,2022-10-17 14:25:45,15.0884006,0.0002637,53.2182,11.6192,26.4166,333.696,0.00013981,1.937e-05,0.0,0 STARLINK-3105,1 49440U 21104AJ  22290.60122455  .00001937  00000-0  13981-3 0  9994,2 49440  53.2182  11.6192 0002637  26.4166 333.6960 15.08840060 51858,6917.88,95.438,541.569,537.9209999999998,0.0
49440.0,STARLINK-3105,PAYLOAD,2022-10-18 01:33:28,15.08830912,0.0002488,53.2197,9.5389,21.234,338.8755,0.00018364,2.635e-05,0.0,0 STARLINK-3105,1 49440U 21104AJ  22291.06491030  .00002635  00000-0  18364-3 0  9999,2 49440  53.2197   9.5389 0002488  21.2340 338.8755 15.08830912 52999,6917.908,95.438,541.494,538.052,0.0
49440.0,STARLINK-3105,PAYLOAD,2022-10-18 09:30:24,15.08828499,0.0002658,53.2187,8.049,21.9734,338.1372,0.00024384,3.593e-05,0.0,0 STARLINK-3105,1 49440U 21104AJ  22291.39611208  .00003593  00000-0  24384-3 0  9999,2 49440  53.2187   8.0490 0002658  21.9734 338.1372 15.08828499 51970,6917.916,95.438,541.619,537.942,0.0
49440.0,STARLINK-3105,PAYLOAD,2022-10-18 14:16:33,15.08825289,0.0002624,53.2183,7.157,24.0965,336.0149,0.00024421,3.599e-05,0.0,0 STARLINK-3105,1 49440U 21104AJ  22291.59483534  .00003599  00000-0  24421-3 0  9998,2 49440  53.2183   7.1570 0002624  24.0965 336.0149 15.08825289 52006,6917.925,95.438,541.606,537.975,0.0
49440.0,STARLINK-3105,PAYLOAD,2022-10-19 10:56:34,15.08843749,0.0002728,53.2183,3.2922,26.1312,333.9817,2.233e-05,6.7e-07,0.0,0 STARLINK-3105,1 49440U 21104AJ  22292.45595145  .00000067  00000-0  22330-4 0  9991,2 49440  53.2183   3.2922 0002728  26.1312 333.9817 15.08843749 52131,6917.869000000002,95.437,541.621,537.847,0.0
49440.0,STARLINK-3105,PAYLOAD,2022-10-19 14:07:20,15.08848044,0.0002739,53.2181,2.6974,27.4117,332.702,4.6152e-05,4.46e-06,0.0,0 STARLINK-3105,1 49440U 21104AJ  22292.58842744  .00000446  00000-0  46152-4 0  9994,2 49440  53.2181   2.6974 0002739  27.4117 332.7020 15.08848044 52156,6917.856,95.437,541.616,537.826,0.0
